[{"OBJECT_NAME":"ONEWEB-0669","OBJECT_ID":"2023-029AJ","EPOCH":"2026-03-09T16:55:49.639296","MEAN_MOTION":13.20771043,"ECCENTRICITY":0.00011964,"INCLINATION":87.9158,"RA_OF_ASC_NODE":294.3123,"ARG_OF_PERICENTER":65.8209,"MEAN_ANOMALY":294.305,"EPHEMERIS_TYPE":0,"CLASSIFICATION_TYPE":"U","NORAD_CAT_ID":55828,"ELEMENT_SET_NO":999,"REV_AT_EPOCH":14801,"BSTAR":-0.0001431934,"MEAN_MOTION_DOT":-4.5e-7,"MEAN_MOTION_DDOT":0},{"OBJECT_NAME":"SL-14 DEB","OBJECT_ID":"1991-056M","EPOCH":"2026-03-09T20:39:32.052096","MEAN_MOTION":13.22350058,"ECCENTRICITY":0.0029281,"INCLINATION":82.5869,"RA_OF_ASC_NODE":201.6056,"ARG_OF_PERICENTER":211.6523,"MEAN_ANOMALY":148.2843,"EPHEMERIS_TYPE":0,"CLASSIFICATION_TYPE":"U","NORAD_CAT_ID":45275,"ELEMENT_SET_NO":999,"REV_AT_EPOCH":29277,"BSTAR":0.00047888998,"MEAN_MOTION_DOT":2.12e-6,"MEAN_MOTION_DDOT":0}]
